O3B FM5                 
1 39188U 13031A   23196.46212058 -.00000026  00000+0  00000+0 0  9993
2 39188   0.0464 343.5513 0003033 130.1850 246.2925  5.00115644183712
O3B FM4                 
1 39189U 13031B   23197.51729714 -.00000027  00000+0  00000+0 0  9994
2 39189   0.0483  17.6552 0002979  97.4739 244.8986  5.00116170183788
O3B FM2                 
1 39190U 13031C   23198.20880370 -.00000027  00000+0  00000+0 0  9999
2 39190   0.0495  23.4254 0002838  90.8121 245.7889  5.00115356183779
O3B PFM                 
1 39191U 13031D   23196.03591847 -.00000026  00000+0  00000+0 0  9996
2 39191   0.0466 354.6026 0002606 116.0842 249.3383  5.00116019183684
O3B FM3                 
1 40079U 14038A   23198.28919012 -.00000027  00000+0  00000+0 0  9999
2 40079   0.0456   8.7871 0001366  40.4249 310.7966  5.00116800164810
O3B FM7                 
1 40080U 14038B   23198.43560574 -.00000027  00000+0  00000+0 0  9993
2 40080   0.0431  13.6533 0004408 107.5619 238.8248  5.00115919164847
O3B FM6                 
1 40081U 14038C   23199.46162347 -.00000026  00000+0  00000+0 0  9993
2 40081   0.0466   9.4334 0002694 104.1892 246.4026  5.00115345164896
O3B FM8                 
1 40082U 14038D   23197.11657880 -.00000027  00000+0  00000+0 0  9996
2 40082   0.0482  12.7332 0002560 101.3965 245.8940  5.00115969164757
O3B FM10                
1 40348U 14083A   23199.34176688 -.00000026  00000+0  00000+0 0  9999
2 40348   0.0497 359.3081 0002644 114.8670 245.8494  5.00115366156794
O3B FM11                
1 40349U 14083B   23198.15575337 -.00000027  00000+0  00000+0 0  9993
2 40349   0.0451 358.3006 0003348 112.0628 249.6694  5.00115638156736
O3B FM12                
1 40350U 14083C   23198.78269198 -.00000027  00000+0  00000+0 0  9999
2 40350   0.0455 359.3167 0002765 111.5961 249.1136  5.00115503156767
O3B FM9                 
1 40351U 14083D   23197.60976478 -.00000027  00000+0  00000+0 0  9996
2 40351   0.0441 357.5717 0002736 115.5782 246.8757  5.00116191156719
DIAMOND RED             
1 42783U 17036U   23199.07982575  .00032770  00000+0  76340-3 0  9999
2 42783  97.1478 233.1329 0006422   9.4632 350.6736 15.42181307337558
DIAMOND GREEN           
1 42785U 17036W   23200.09579647  .00033022  00000+0  73684-3 0  9997
2 42785  97.1469 234.3821 0005728   6.9435 353.1891 15.43473907337710
DIAMOND BLUE            
1 42786U 17036X   23200.32491617  .00031911  00000+0  72429-3 0  9995
2 42786  97.1475 234.5284 0005984   4.1686 355.9611 15.42970487337742
LEO VANTAGE 1           
1 43113U 18004C   23199.97824209  .00004295  00000+0  33438-3 0  9993
2 43113  99.2594 328.2013 0391053  77.9082 286.5639 14.56918924281903
O3B FM15                
1 43231U 18024A   23195.87674805 -.00000026  00000+0  00000+0 0  9990
2 43231   0.0531 359.8611 0002849 107.3629 252.8043  5.00114502 97769
O3B FM16                
1 43232U 18024B   23197.32934304 -.00000027  00000+0  00000+0 0  9997
2 43232   0.0573 358.9848 0002877 110.1283 250.9150  5.00116255 97818
O3B FM14                
1 43233U 18024C   23198.36877273 -.00000027  00000+0  00000+0 0  9994
2 43233   0.0587 359.2949 0003028 113.1677 247.5663  5.00115755 97869
O3B FM13                
1 43234U 18024D   23195.82386340 -.00000026  00000+0  00000+0 0  9992
2 43234   0.0510 338.2382 0003076 114.8008 266.9934  5.00115554 97743
O3B FM20                
1 44112U 19020A   23196.39655118 -.00000026  00000+0  00000+0 0  9990
2 44112   0.0498   0.3208 0003138 103.4499 256.2613  5.00115760 78233
O3B FM19                
1 44113U 19020B   23194.62452865 -.00000024  00000+0  00000+0 0  9997
2 44113   0.0379 342.7227 0004765 119.8638 257.4642  5.00116805 78134
O3B FM17                
1 44114U 19020C   23195.90406682 -.00000026  00000+0  00000+0 0  9998
2 44114   0.0636  14.5107 0002864  91.2799 254.2381  5.00116004 78205
O3B FM18                
1 44115U 19020D   23198.44908063 -.00000027  00000+0  00000+0 0  9992
2 44115   0.0496 359.7113 0002764 112.2228 248.0921  5.00116098 78328
SALSAT                  
1 46495U 20068K   23199.84087018  .00005005  00000+0  32841-3 0  9994
2 46495  97.7715 148.1870 0015937  20.0655 340.1195 15.08025683153840
O3B MPOWER F1           
1 54755U 22174A   23200.45142574 -.00000025  00000+0  00000+0 0  9997
2 54755   0.0388   9.8908 0002984 186.5731  30.1109  5.00112151 12121
O3B MPOWER F2           
1 54756U 22174B   23200.23638423 -.00000025  00000+0  00000+0 0  9997
2 54756   0.0392  15.1394 0004527 167.3319 177.5234  5.00114304 12206
O3B MPOWER F4           
1 56367U 23059A   23198.64972508 -.00000022  00000+0  00000+0 0  9993
2 56367   2.7737 299.4524 0590579   3.2252 357.2259  5.32753290  5171
O3B MPOWER F3           
1 56368U 23059B   23190.53498954 -.00000007  00000+0  00000+0 0  9995
2 56368   3.4614 296.9212 0836686   6.7490 354.3518  5.88073811  4781
